CCSDS_OMM_VERS = 2.0
CREATION_DATE  = 
ORIGINATOR     = 

OBJECT_NAME    = TWILIGHT AK
OBJECT_ID      = 2026-004AK
CENTER_NAME    = EARTH
REF_FRAME      = TEME
TIME_SYSTEM    = UTC
MEAN_ELEMENT_THEORY = SGP/SGP4

EPOCH          = 2026-01-27T23:10:13.684224
MEAN_MOTION    = 15.17759626
ECCENTRICITY   = .0008817
INCLINATION    = 97.4497
RA_OF_ASC_NODE = 29.0762
ARG_OF_PERICENTER = 102.3252
MEAN_ANOMALY   = 257.8969

EPHEMERIS_TYPE = 0
CLASSIFICATION_TYPE = U
NORAD_CAT_ID   = 67396
ELEMENT_SET_NO = 999
REV_AT_EPOCH   = 248
BSTAR          = -.44164002E-3
MEAN_MOTION_DOT = -.8975E-4
MEAN_MOTION_DDOT = 0

CCSDS_OMM_VERS = 2.0
CREATION_DATE  = 
ORIGINATOR     = 

OBJECT_NAME    = TWILIGHT AL
OBJECT_ID      = 2026-004AL
CENTER_NAME    = EARTH
REF_FRAME      = TEME
TIME_SYSTEM    = UTC
MEAN_ELEMENT_THEORY = SGP/SGP4

EPOCH          = 2026-01-27T05:48:40.633344
MEAN_MOTION    = 15.17655916
ECCENTRICITY   = .00079
INCLINATION    = 97.4521
RA_OF_ASC_NODE = 28.3651
ARG_OF_PERICENTER = 106.0212
MEAN_ANOMALY   = 254.1893

EPHEMERIS_TYPE = 0
CLASSIFICATION_TYPE = U
NORAD_CAT_ID   = 67397
ELEMENT_SET_NO = 999
REV_AT_EPOCH   = 237
BSTAR          = .86503E-3
MEAN_MOTION_DOT = .1739E-3
MEAN_MOTION_DDOT = 0

CCSDS_OMM_VERS = 2.0
CREATION_DATE  = 
ORIGINATOR     = 

OBJECT_NAME    = TWILIGHT AM
OBJECT_ID      = 2026-004AM
CENTER_NAME    = EARTH
REF_FRAME      = TEME
TIME_SYSTEM    = UTC
MEAN_ELEMENT_THEORY = SGP/SGP4

EPOCH          = 2026-01-27T23:09:29.699712
MEAN_MOTION    = 15.17852282
ECCENTRICITY   = .00086662
INCLINATION    = 97.4557
RA_OF_ASC_NODE = 29.0900
ARG_OF_PERICENTER = 110.5090
MEAN_ANOMALY   = 249.7075

EPHEMERIS_TYPE = 0
CLASSIFICATION_TYPE = U
NORAD_CAT_ID   = 67398
ELEMENT_SET_NO = 999
REV_AT_EPOCH   = 248
BSTAR          = .58758719E-3
MEAN_MOTION_DOT = .1185E-3
MEAN_MOTION_DDOT = 0

CCSDS_OMM_VERS = 2.0
CREATION_DATE  = 
ORIGINATOR     = 

OBJECT_NAME    = TWILIGHT AN
OBJECT_ID      = 2026-004AN
CENTER_NAME    = EARTH
REF_FRAME      = TEME
TIME_SYSTEM    = UTC
MEAN_ELEMENT_THEORY = SGP/SGP4

EPOCH          = 2026-01-27T21:32:09.464064
MEAN_MOTION    = 15.17999505
ECCENTRICITY   = .00093942
INCLINATION    = 97.4546
RA_OF_ASC_NODE = 29.0245
ARG_OF_PERICENTER = 110.5536
MEAN_ANOMALY   = 249.6706

EPHEMERIS_TYPE = 0
CLASSIFICATION_TYPE = U
NORAD_CAT_ID   = 67399
ELEMENT_SET_NO = 999
REV_AT_EPOCH   = 247
BSTAR          = .38737789E-3
MEAN_MOTION_DOT = .782E-4
MEAN_MOTION_DDOT = 0

CCSDS_OMM_VERS = 2.0
CREATION_DATE  = 
ORIGINATOR     = 

OBJECT_NAME    = CONNECTA IOT-13
OBJECT_ID      = 2026-004AP
CENTER_NAME    = EARTH
REF_FRAME      = TEME
TIME_SYSTEM    = UTC
MEAN_ELEMENT_THEORY = SGP/SGP4

EPOCH          = 2026-01-27T21:27:19.963584
MEAN_MOTION    = 15.18295635
ECCENTRICITY   = .00108557
INCLINATION    = 97.4544
RA_OF_ASC_NODE = 29.0284
ARG_OF_PERICENTER = 111.4303
MEAN_ANOMALY   = 248.8090

EPHEMERIS_TYPE = 0
CLASSIFICATION_TYPE = U
NORAD_CAT_ID   = 67400
ELEMENT_SET_NO = 999
REV_AT_EPOCH   = 247
BSTAR          = .34736743E-3
MEAN_MOTION_DOT = .7067E-4
MEAN_MOTION_DDOT = 0

CCSDS_OMM_VERS = 2.0
CREATION_DATE  = 
ORIGINATOR     = 

OBJECT_NAME    = CONNECTA IOT-14
OBJECT_ID      = 2026-004AQ
CENTER_NAME    = EARTH
REF_FRAME      = TEME
TIME_SYSTEM    = UTC
MEAN_ELEMENT_THEORY = SGP/SGP4

EPOCH          = 2026-01-27T23:00:37.157760
MEAN_MOTION    = 15.18404019
ECCENTRICITY   = .00115518
INCLINATION    = 97.4486
RA_OF_ASC_NODE = 29.0824
ARG_OF_PERICENTER = 106.4704
MEAN_ANOMALY   = 253.7800

EPHEMERIS_TYPE = 0
CLASSIFICATION_TYPE = U
NORAD_CAT_ID   = 67401
ELEMENT_SET_NO = 999
REV_AT_EPOCH   = 248
BSTAR          = .36191922E-3
MEAN_MOTION_DOT = .7391E-4
MEAN_MOTION_DDOT = 0

CCSDS_OMM_VERS = 2.0
CREATION_DATE  = 
ORIGINATOR     = 

OBJECT_NAME    = CONNECTA IOT-15
OBJECT_ID      = 2026-004AR
CENTER_NAME    = EARTH
REF_FRAME      = TEME
TIME_SYSTEM    = UTC
MEAN_ELEMENT_THEORY = SGP/SGP4

EPOCH          = 2026-01-27T23:25:00.929280
MEAN_MOTION    = 15.16831865
ECCENTRICITY   = .00049799
INCLINATION    = 97.4547
RA_OF_ASC_NODE = 29.0741
ARG_OF_PERICENTER = 90.0438
MEAN_ANOMALY   = 270.1366

EPHEMERIS_TYPE = 0
CLASSIFICATION_TYPE = U
NORAD_CAT_ID   = 67402
ELEMENT_SET_NO = 999
REV_AT_EPOCH   = 247
BSTAR          = .56718728E-3
MEAN_MOTION_DOT = .11099E-3
MEAN_MOTION_DDOT = 0

CCSDS_OMM_VERS = 2.0
CREATION_DATE  = 
ORIGINATOR     = 

OBJECT_NAME    = SHIJIAN-29B (SJ-29B)
OBJECT_ID      = 2025-315C
CENTER_NAME    = EARTH
REF_FRAME      = TEME
TIME_SYSTEM    = UTC
MEAN_ELEMENT_THEORY = SGP/SGP4

EPOCH          = 2026-01-28T00:02:22.764768
MEAN_MOTION    = 1.00273567
ECCENTRICITY   = .00011931
INCLINATION    = 3.0419
RA_OF_ASC_NODE = 98.7969
ARG_OF_PERICENTER = 314.0167
MEAN_ANOMALY   = 148.1475

EPHEMERIS_TYPE = 0
CLASSIFICATION_TYPE = U
NORAD_CAT_ID   = 67403
ELEMENT_SET_NO = 999
REV_AT_EPOCH   = 28
BSTAR          = 0
MEAN_MOTION_DOT = -.63E-6
MEAN_MOTION_DDOT = 0

CCSDS_OMM_VERS = 2.0
CREATION_DATE  = 
ORIGINATOR     = 

OBJECT_NAME    = STARLINK-36484
OBJECT_ID      = 2026-005A
CENTER_NAME    = EARTH
REF_FRAME      = TEME
TIME_SYSTEM    = UTC
MEAN_ELEMENT_THEORY = SGP/SGP4

EPOCH          = 2026-01-27T22:00:01.999584
MEAN_MOTION    = 15.71067710
ECCENTRICITY   = .0001532
INCLINATION    = 43.0005
RA_OF_ASC_NODE = 113.1690
ARG_OF_PERICENTER = 279.6175
MEAN_ANOMALY   = 99.1943

EPHEMERIS_TYPE = 0
CLASSIFICATION_TYPE = U
NORAD_CAT_ID   = 67404
ELEMENT_SET_NO = 999
REV_AT_EPOCH   = 358
BSTAR          = -.17415385E-1
MEAN_MOTION_DOT = -.1991325E-1
MEAN_MOTION_DDOT = 0

CCSDS_OMM_VERS = 2.0
CREATION_DATE  = 
ORIGINATOR     = 

OBJECT_NAME    = STARLINK-36452
OBJECT_ID      = 2026-005B
CENTER_NAME    = EARTH
REF_FRAME      = TEME
TIME_SYSTEM    = UTC
MEAN_ELEMENT_THEORY = SGP/SGP4

EPOCH          = 2026-01-27T22:00:01.999584
MEAN_MOTION    = 15.71070233
ECCENTRICITY   = .00015727
INCLINATION    = 43.0007
RA_OF_ASC_NODE = 113.1643
ARG_OF_PERICENTER = 280.1664
MEAN_ANOMALY   = 100.5607

EPHEMERIS_TYPE = 0
CLASSIFICATION_TYPE = U
NORAD_CAT_ID   = 67405
ELEMENT_SET_NO = 999
REV_AT_EPOCH   = 358
BSTAR          = -.17440317E-1
MEAN_MOTION_DOT = -.1994059E-1
MEAN_MOTION_DDOT = 0

CCSDS_OMM_VERS = 2.0
CREATION_DATE  = 
ORIGINATOR     = 

OBJECT_NAME    = STARLINK-36409
OBJECT_ID      = 2026-005C
CENTER_NAME    = EARTH
REF_FRAME      = TEME
TIME_SYSTEM    = UTC
MEAN_ELEMENT_THEORY = SGP/SGP4

EPOCH          = 2026-01-27T22:00:01.999584
MEAN_MOTION    = 15.71068088
ECCENTRICITY   = .00016246
INCLINATION    = 43.0006
RA_OF_ASC_NODE = 113.1593
ARG_OF_PERICENTER = 280.5830
MEAN_ANOMALY   = 102.0597

EPHEMERIS_TYPE = 0
CLASSIFICATION_TYPE = U
NORAD_CAT_ID   = 67406
ELEMENT_SET_NO = 999
REV_AT_EPOCH   = 363
BSTAR          = -.17388157E-1
MEAN_MOTION_DOT = -.1988685E-1
MEAN_MOTION_DDOT = 0

CCSDS_OMM_VERS = 2.0
CREATION_DATE  = 
ORIGINATOR     = 

OBJECT_NAME    = STARLINK-36510
OBJECT_ID      = 2026-005D
CENTER_NAME    = EARTH
REF_FRAME      = TEME
TIME_SYSTEM    = UTC
MEAN_ELEMENT_THEORY = SGP/SGP4

EPOCH          = 2026-01-27T22:00:01.999584
MEAN_MOTION    = 15.71068180
ECCENTRICITY   = .00016436
INCLINATION    = 43.0005
RA_OF_ASC_NODE = 113.1547
ARG_OF_PERICENTER = 278.1160
MEAN_ANOMALY   = 106.4452

EPHEMERIS_TYPE = 0
CLASSIFICATION_TYPE = U
NORAD_CAT_ID   = 67407
ELEMENT_SET_NO = 999
REV_AT_EPOCH   = 363
BSTAR          = -.17398553E-1
MEAN_MOTION_DOT = -.1989756E-1
MEAN_MOTION_DDOT = 0

