TWILIGHT AK             
1 67396U 26004AK  26027.96543616 -.00008975  00000+0 -44164-3 0  9992
2 67396  97.4497  29.0762 0008817 102.3252 257.8969 15.17759626  2487
TWILIGHT AL             
1 67397U 26004AL  26027.24213696  .00017390  00000+0  86503-3 0  9998
2 67397  97.4521  28.3651 0007900 106.0212 254.1893 15.17655916  2375
TWILIGHT AM             
1 67398U 26004AM  26027.96492708  .00011850  00000+0  58759-3 0  9998
2 67398  97.4557  29.0900 0008666 110.5090 249.7075 15.17852282  2483
TWILIGHT AN             
1 67399U 26004AN  26027.89733176  .00007820  00000+0  38738-3 0  9995
2 67399  97.4546  29.0245 0009394 110.5536 249.6706 15.17999505  2477
CONNECTA IOT-13         
1 67400U 26004AP  26027.89398106  .00007067  00000+0  34737-3 0  9996
2 67400  97.4544  29.0284 0010855 111.4303 248.8090 15.18295635  2478
CONNECTA IOT-14         
1 67401U 26004AQ  26027.95876340  .00007391  00000+0  36192-3 0  9992
2 67401  97.4486  29.0824 0011551 106.4704 253.7800 15.18404019  2480
CONNECTA IOT-15         
1 67402U 26004AR  26027.97570520  .00011099  00000+0  56719-3 0  9993
2 67402  97.4547  29.0741 0004979  90.0438 270.1366 15.16831865  2475
SHIJIAN-29B (SJ-29B)    
1 67403U 25315C   26028.00165237 -.00000063  00000+0  00000+0 0  9996
2 67403   3.0419  98.7969 0001193 314.0167 148.1475  1.00273567   284
STARLINK-36484          
1 67404U 26005A   26027.91668981 -.01991325  00000+0 -17415-1 0  9999
2 67404  43.0005 113.1690 0001532 279.6175  99.1943 15.71067710  3580
STARLINK-36452          
1 67405U 26005B   26027.91668981 -.01994059  00000+0 -17440-1 0  9995
2 67405  43.0007 113.1643 0001572 280.1664 100.5607 15.71070233  3583
STARLINK-36409          
1 67406U 26005C   26027.91668981 -.01988685  00000+0 -17388-1 0  9995
2 67406  43.0006 113.1593 0001624 280.5830 102.0597 15.71068088  3630
STARLINK-36510          
1 67407U 26005D   26027.91668981 -.01989756  00000+0 -17399-1 0  9998
2 67407  43.0005 113.1547 0001643 278.1160 106.4452 15.71068180  3630
